CCSDS_OMM_VERS = 2.0
CREATION_DATE  = 
ORIGINATOR     = 

OBJECT_NAME    = CONNECTA IOT-13
OBJECT_ID      = 2026-004AP
CENTER_NAME    = EARTH
REF_FRAME      = TEME
TIME_SYSTEM    = UTC
MEAN_ELEMENT_THEORY = SGP/SGP4

EPOCH          = 2026-01-26T20:08:51.948960
MEAN_MOTION    = 15.18285018
ECCENTRICITY   = .0010844
INCLINATION    = 97.4547
RA_OF_ASC_NODE = 27.9894
ARG_OF_PERICENTER = 114.3562
MEAN_ANOMALY   = 245.8805

EPHEMERIS_TYPE = 0
CLASSIFICATION_TYPE = U
NORAD_CAT_ID   = 67400
ELEMENT_SET_NO = 999
REV_AT_EPOCH   = 231
BSTAR          = .35512E-3
MEAN_MOTION_DOT = .7224E-4
MEAN_MOTION_DDOT = 0

CCSDS_OMM_VERS = 2.0
CREATION_DATE  = 
ORIGINATOR     = 

OBJECT_NAME    = CONNECTA IOT-14
OBJECT_ID      = 2026-004AQ
CENTER_NAME    = EARTH
REF_FRAME      = TEME
TIME_SYSTEM    = UTC
MEAN_ELEMENT_THEORY = SGP/SGP4

EPOCH          = 2026-01-26T20:07:21.751680
MEAN_MOTION    = 15.18391374
ECCENTRICITY   = .0011571
INCLINATION    = 97.4489
RA_OF_ASC_NODE = 27.9792
ARG_OF_PERICENTER = 109.5267
MEAN_ANOMALY   = 250.7218

EPHEMERIS_TYPE = 0
CLASSIFICATION_TYPE = U
NORAD_CAT_ID   = 67401
ELEMENT_SET_NO = 999
REV_AT_EPOCH   = 231
BSTAR          = .37896E-3
MEAN_MOTION_DOT = .774E-4
MEAN_MOTION_DDOT = 0

CCSDS_OMM_VERS = 2.0
CREATION_DATE  = 
ORIGINATOR     = 

OBJECT_NAME    = CONNECTA IOT-15
OBJECT_ID      = 2026-004AR
CENTER_NAME    = EARTH
REF_FRAME      = TEME
TIME_SYSTEM    = UTC
MEAN_ELEMENT_THEORY = SGP/SGP4

EPOCH          = 2026-01-26T18:55:05.206944
MEAN_MOTION    = 15.16820925
ECCENTRICITY   = .000495
INCLINATION    = 97.4550
RA_OF_ASC_NODE = 27.9064
ARG_OF_PERICENTER = 92.4173
MEAN_ANOMALY   = 267.7627

EPHEMERIS_TYPE = 0
CLASSIFICATION_TYPE = U
NORAD_CAT_ID   = 67402
ELEMENT_SET_NO = 999
REV_AT_EPOCH   = 229
BSTAR          = .57193E-3
MEAN_MOTION_DOT = .11189E-3
MEAN_MOTION_DDOT = 0

CCSDS_OMM_VERS = 2.0
CREATION_DATE  = 
ORIGINATOR     = 

OBJECT_NAME    = SHIJIAN-29B (SJ-29B)
OBJECT_ID      = 2025-315C
CENTER_NAME    = EARTH
REF_FRAME      = TEME
TIME_SYSTEM    = UTC
MEAN_ELEMENT_THEORY = SGP/SGP4

EPOCH          = 2026-01-26T15:45:26.162784
MEAN_MOTION    = 1.00273572
ECCENTRICITY   = .0001113
INCLINATION    = 3.0382
RA_OF_ASC_NODE = 98.8383
ARG_OF_PERICENTER = 316.7480
MEAN_ANOMALY   = 19.8040

EPHEMERIS_TYPE = 0
CLASSIFICATION_TYPE = U
NORAD_CAT_ID   = 67403
ELEMENT_SET_NO = 999
REV_AT_EPOCH   = 26
BSTAR          = 0
MEAN_MOTION_DOT = -.58E-6
MEAN_MOTION_DDOT = 0

CCSDS_OMM_VERS = 2.0
CREATION_DATE  = 
ORIGINATOR     = 

OBJECT_NAME    = STARLINK-36484
OBJECT_ID      = 2026-005A
CENTER_NAME    = EARTH
REF_FRAME      = TEME
TIME_SYSTEM    = UTC
MEAN_ELEMENT_THEORY = SGP/SGP4

EPOCH          = 2026-01-26T20:00:01.999008
MEAN_MOTION    = 15.75442985
ECCENTRICITY   = .0001726
INCLINATION    = 43.0001
RA_OF_ASC_NODE = 119.7239
ARG_OF_PERICENTER = 289.1099
MEAN_ANOMALY   = 66.3502

EPHEMERIS_TYPE = 0
CLASSIFICATION_TYPE = U
NORAD_CAT_ID   = 67404
ELEMENT_SET_NO = 999
REV_AT_EPOCH   = 340
BSTAR          = -.12041E-1
MEAN_MOTION_DOT = -.16683E-1
MEAN_MOTION_DDOT = 0

CCSDS_OMM_VERS = 2.0
CREATION_DATE  = 
ORIGINATOR     = 

OBJECT_NAME    = STARLINK-36452
OBJECT_ID      = 2026-005B
CENTER_NAME    = EARTH
REF_FRAME      = TEME
TIME_SYSTEM    = UTC
MEAN_ELEMENT_THEORY = SGP/SGP4

EPOCH          = 2026-01-26T20:00:01.999008
MEAN_MOTION    = 15.75441551
ECCENTRICITY   = .0001296
INCLINATION    = 43.0003
RA_OF_ASC_NODE = 119.7194
ARG_OF_PERICENTER = 288.0324
MEAN_ANOMALY   = 69.3443

EPHEMERIS_TYPE = 0
CLASSIFICATION_TYPE = U
NORAD_CAT_ID   = 67405
ELEMENT_SET_NO = 999
REV_AT_EPOCH   = 340
BSTAR          = -.12071E-1
MEAN_MOTION_DOT = -.1671591E-1
MEAN_MOTION_DDOT = 0

CCSDS_OMM_VERS = 2.0
CREATION_DATE  = 
ORIGINATOR     = 

OBJECT_NAME    = STARLINK-36409
OBJECT_ID      = 2026-005C
CENTER_NAME    = EARTH
REF_FRAME      = TEME
TIME_SYSTEM    = UTC
MEAN_ELEMENT_THEORY = SGP/SGP4

EPOCH          = 2026-01-26T20:00:01.999008
MEAN_MOTION    = 15.75426700
ECCENTRICITY   = .0001938
INCLINATION    = 43.0000
RA_OF_ASC_NODE = 119.7144
ARG_OF_PERICENTER = 291.1050
MEAN_ANOMALY   = 68.1910

EPHEMERIS_TYPE = 0
CLASSIFICATION_TYPE = U
NORAD_CAT_ID   = 67406
ELEMENT_SET_NO = 999
REV_AT_EPOCH   = 345
BSTAR          = -.11857E-1
MEAN_MOTION_DOT = -.1644851E-1
MEAN_MOTION_DDOT = 0

CCSDS_OMM_VERS = 2.0
CREATION_DATE  = 
ORIGINATOR     = 

OBJECT_NAME    = STARLINK-36510
OBJECT_ID      = 2026-005D
CENTER_NAME    = EARTH
REF_FRAME      = TEME
TIME_SYSTEM    = UTC
MEAN_ELEMENT_THEORY = SGP/SGP4

EPOCH          = 2026-01-26T20:00:01.999008
MEAN_MOTION    = 15.75434562
ECCENTRICITY   = .0002106
INCLINATION    = 43.0000
RA_OF_ASC_NODE = 119.7097
ARG_OF_PERICENTER = 287.2847
MEAN_ANOMALY   = 73.9236

EPHEMERIS_TYPE = 0
CLASSIFICATION_TYPE = U
NORAD_CAT_ID   = 67407
ELEMENT_SET_NO = 999
REV_AT_EPOCH   = 345
BSTAR          = -.11926E-1
MEAN_MOTION_DOT = -.1653962E-1
MEAN_MOTION_DDOT = 0

CCSDS_OMM_VERS = 2.0
CREATION_DATE  = 
ORIGINATOR     = 

OBJECT_NAME    = STARLINK-36509
OBJECT_ID      = 2026-005E
CENTER_NAME    = EARTH
REF_FRAME      = TEME
TIME_SYSTEM    = UTC
MEAN_ELEMENT_THEORY = SGP/SGP4

EPOCH          = 2026-01-26T20:00:01.999008
MEAN_MOTION    = 15.75438714
ECCENTRICITY   = .0001701
INCLINATION    = 43.0002
RA_OF_ASC_NODE = 119.7044
ARG_OF_PERICENTER = 270.0087
MEAN_ANOMALY   = 93.1210

EPHEMERIS_TYPE = 0
CLASSIFICATION_TYPE = U
NORAD_CAT_ID   = 67408
ELEMENT_SET_NO = 999
REV_AT_EPOCH   = 345
BSTAR          = -.12041E-1
MEAN_MOTION_DOT = -.1668017E-1
MEAN_MOTION_DDOT = 0

CCSDS_OMM_VERS = 2.0
CREATION_DATE  = 
ORIGINATOR     = 

OBJECT_NAME    = STARLINK-36507
OBJECT_ID      = 2026-005F
CENTER_NAME    = EARTH
REF_FRAME      = TEME
TIME_SYSTEM    = UTC
MEAN_ELEMENT_THEORY = SGP/SGP4

EPOCH          = 2026-01-26T20:00:01.999008
MEAN_MOTION    = 15.75443048
ECCENTRICITY   = .0001229
INCLINATION    = 43.0000
RA_OF_ASC_NODE = 119.6995
ARG_OF_PERICENTER = 286.9551
MEAN_ANOMALY   = 78.0821

EPHEMERIS_TYPE = 0
CLASSIFICATION_TYPE = U
NORAD_CAT_ID   = 67409
ELEMENT_SET_NO = 999
REV_AT_EPOCH   = 345
BSTAR          = -.12024E-1
MEAN_MOTION_DOT = -.1665944E-1
MEAN_MOTION_DDOT = 0

CCSDS_OMM_VERS = 2.0
CREATION_DATE  = 
ORIGINATOR     = 

OBJECT_NAME    = STARLINK-36508
OBJECT_ID      = 2026-005G
CENTER_NAME    = EARTH
REF_FRAME      = TEME
TIME_SYSTEM    = UTC
MEAN_ELEMENT_THEORY = SGP/SGP4

EPOCH          = 2026-01-26T20:00:01.999008
MEAN_MOTION    = 15.75431315
ECCENTRICITY   = .0001134
INCLINATION    = 43.0001
RA_OF_ASC_NODE = 119.6949
ARG_OF_PERICENTER = 291.2829
MEAN_ANOMALY   = 75.6827

EPHEMERIS_TYPE = 0
CLASSIFICATION_TYPE = U
NORAD_CAT_ID   = 67410
ELEMENT_SET_NO = 999
REV_AT_EPOCH   = 345
BSTAR          = -.11991E-1
MEAN_MOTION_DOT = -.1660976E-1
MEAN_MOTION_DDOT = 0

CCSDS_OMM_VERS = 2.0
CREATION_DATE  = 
ORIGINATOR     = 

OBJECT_NAME    = STARLINK-36503
OBJECT_ID      = 2026-005H
CENTER_NAME    = EARTH
REF_FRAME      = TEME
TIME_SYSTEM    = UTC
MEAN_ELEMENT_THEORY = SGP/SGP4

EPOCH          = 2026-01-26T20:00:01.999008
MEAN_MOTION    = 15.75439833
ECCENTRICITY   = .0001513
INCLINATION    = 43.0003
RA_OF_ASC_NODE = 119.6898
ARG_OF_PERICENTER = 293.4319
MEAN_ANOMALY   = 75.4438

EPHEMERIS_TYPE = 0
CLASSIFICATION_TYPE = U
NORAD_CAT_ID   = 67411
ELEMENT_SET_NO = 999
REV_AT_EPOCH   = 319
BSTAR          = -.12026E-1
MEAN_MOTION_DOT = -.1666124E-1
MEAN_MOTION_DDOT = 0

CCSDS_OMM_VERS = 2.0
CREATION_DATE  = 
ORIGINATOR     = 

OBJECT_NAME    = STARLINK-36446
OBJECT_ID      = 2026-005J
CENTER_NAME    = EARTH
REF_FRAME      = TEME
TIME_SYSTEM    = UTC
MEAN_ELEMENT_THEORY = SGP/SGP4

EPOCH          = 2026-01-26T20:00:01.999008
MEAN_MOTION    = 15.75465493
ECCENTRICITY   = .0001863
INCLINATION    = 43.0003
RA_OF_ASC_NODE = 119.6852
ARG_OF_PERICENTER = 277.4956
MEAN_ANOMALY   = 93.2769

EPHEMERIS_TYPE = 0
CLASSIFICATION_TYPE = U
NORAD_CAT_ID   = 67412
ELEMENT_SET_NO = 999
REV_AT_EPOCH   = 345
BSTAR          = -.12203E-1
MEAN_MOTION_DOT = -.1689741E-1
MEAN_MOTION_DDOT = 0

CCSDS_OMM_VERS = 2.0
CREATION_DATE  = 
ORIGINATOR     = 

OBJECT_NAME    = STARLINK-36442
OBJECT_ID      = 2026-005K
CENTER_NAME    = EARTH
REF_FRAME      = TEME
TIME_SYSTEM    = UTC
MEAN_ELEMENT_THEORY = SGP/SGP4

EPOCH          = 2026-01-26T20:00:01.999008
MEAN_MOTION    = 15.75452870
ECCENTRICITY   = .0001399
INCLINATION    = 42.9997
RA_OF_ASC_NODE = 119.6800
ARG_OF_PERICENTER = 276.9416
MEAN_ANOMALY   = 95.7602

EPHEMERIS_TYPE = 0
CLASSIFICATION_TYPE = U
NORAD_CAT_ID   = 67413
ELEMENT_SET_NO = 999
REV_AT_EPOCH   = 345
BSTAR          = -.12122E-1
MEAN_MOTION_DOT = -.1678709E-1
MEAN_MOTION_DDOT = 0

CCSDS_OMM_VERS = 2.0
CREATION_DATE  = 
ORIGINATOR     = 

OBJECT_NAME    = STARLINK-36506
OBJECT_ID      = 2026-005L
CENTER_NAME    = EARTH
REF_FRAME      = TEME
TIME_SYSTEM    = UTC
MEAN_ELEMENT_THEORY = SGP/SGP4

EPOCH          = 2026-01-26T20:00:01.999008
MEAN_MOTION    = 15.75488791
ECCENTRICITY   = .0001408
INCLINATION    = 43.0002
RA_OF_ASC_NODE = 119.6752
ARG_OF_PERICENTER = 289.8700
MEAN_ANOMALY   = 84.7066

EPHEMERIS_TYPE = 0
CLASSIFICATION_TYPE = U
NORAD_CAT_ID   = 67414
ELEMENT_SET_NO = 999
REV_AT_EPOCH   = 345
BSTAR          = -.12302E-1
MEAN_MOTION_DOT = -.170303E-1
MEAN_MOTION_DDOT = 0

